ONEWEB-0414             
1 50491U 21132Y   24214.76453721  .00000003  00000+0 -25081-4 0  9999
2 50491  87.9129 111.7087 0002196  73.0425 287.0948 13.18685823131425
ONEWEB-0417             
1 50492U 21132Z   24215.22769505  .00000073  00000+0  15282-3 0  9999
2 50492  87.9136 111.6225 0002110  83.4833 276.6539 13.18686287132753
ONEWEB-0418             
1 50493U 21132AA  24214.78179429  .00000036  00000+0  57825-4 0  9999
2 50493  87.9133 111.7127 0002295  87.9885 272.1510 13.18686877131465
ONEWEB-0419             
1 50494U 21132AB  24214.95105652  .00000057  00000+0  11235-3 0  9993
2 50494  87.9129 111.6946 0001847  87.4035 272.7308 13.18683118131403
ONEWEB-0420             
1 50495U 21132AC  24214.76611965  .00000008  00000+0 -13246-4 0  9994
2 50495  87.9130 111.7402 0001797  67.7717 292.3606 13.18686358131370
ONEWEB-0421             
1 50496U 21132AD  24215.44267402 -.00000018  00000+0 -78753-4 0  9990
2 50496  87.9136 111.5746 0002278  70.2307 289.9071 13.18686167132800
ONEWEB-0424             
1 50497U 21132AE  24215.47745230 -.00000003  00000+0 -40111-4 0  9995
2 50497  87.9131 111.5717 0001697  93.3160 266.8166 13.18684482132819
ONEWEB-0426             
1 50498U 21132AF  24214.75663456  .00000041  00000+0  70814-4 0  9998
2 50498  87.9128 111.7305 0002593  80.2870 279.8555 13.18686086131389
